[{"OBJECT_NAME":"STARLINK-2408","OBJECT_ID":"2021-018AN","EPOCH":"2026-03-09T17:35:33.480960","MEAN_MOTION":15.06395389,"ECCENTRICITY":0.00014347,"INCLINATION":53.0554,"RA_OF_ASC_NODE":251.4081,"ARG_OF_PERICENTER":109.3235,"MEAN_ANOMALY":250.791,"EPHEMERIS_TYPE":0,"CLASSIFICATION_TYPE":"U","NORAD_CAT_ID":47823,"ELEMENT_SET_NO":999,"REV_AT_EPOCH":27660,"BSTAR":-0.00010803348,"MEAN_MOTION_DOT":-1.89e-5,"MEAN_MOTION_DDOT":0},{"OBJECT_NAME":"THORAD AGENA D DEB","OBJECT_ID":"1969-082Z","EPOCH":"2026-03-09T07:18:45.871776","MEAN_MOTION":15.11837328,"ECCENTRICITY":0.00204275,"INCLINATION":70.0067,"RA_OF_ASC_NODE":36.7332,"ARG_OF_PERICENTER":221.6463,"MEAN_ANOMALY":138.3149,"EPHEMERIS_TYPE":0,"CLASSIFICATION_TYPE":"U","NORAD_CAT_ID":4157,"ELEMENT_SET_NO":999,"REV_AT_EPOCH":97934,"BSTAR":0.0014373482,"MEAN_MOTION_DOT":0.00024719,"MEAN_MOTION_DDOT":0}]
